{
  "type": "FeatureCollection",
  "features": [
    {
      "type": "Feature",
      "properties": {
        "norad_id": 54259,
        "name": "EUTELSAT 10B",
        "group": "eutelsat",
        "lat": -0.03241401415961884,
        "lon": 30.105914271297166,
        "alt_km": 35785.365628472224,
        "timestamp": "2025-12-18T19:29:52.214567+00:00",
        "meta_object_name": "EUTELSAT 10B",
        "meta_object_id": "2022-157A",
        "meta_epoch": "2025-12-18T04:46:38.871264",
        "meta_mean_motion": 1.00271906,
        "meta_eccentricity": 7.47e-05,
        "meta_inclination": 0.0611,
        "meta_ra_of_asc_node": 98.7378,
        "meta_arg_of_pericenter": 9.9872,
        "meta_mean_anomaly": 59.9899,
        "meta_ephemeris_type": 0,
        "meta_classification_type": "U",
        "meta_norad_cat_id": 54259,
        "meta_element_set_no": 999,
        "meta_rev_at_epoch": 1121,
        "meta_bstar": 0,
        "meta_mean_motion_dot": 9.3e-07,
        "meta_mean_motion_ddot": 0,
        "tle_line1": "1 54259U 22157A   25352.19906101  .00000093  00000+0  00000+0 0  9996",
        "tle_line2": "2 54259   0.0611  98.7378 0000747   9.9872  59.9899  1.00271906 11210"
      },
      "geometry": {
        "type": "Point",
        "coordinates": [
          30.105914271297166,
          -0.03241401415961884
        ]
      }
    },
    {
      "type": "Feature",
      "properties": {
        "norad_id": 59346,
        "name": "EUTELSAT 36D",
        "group": "eutelsat",
        "lat": 0.039773651672598526,
        "lon": 55.96506648276437,
        "alt_km": 35784.26814890779,
        "timestamp": "2025-12-18T19:29:52.214578+00:00",
        "meta_object_name": "EUTELSAT 36D",
        "meta_object_id": "2024-059A",
        "meta_epoch": "2025-12-17T22:03:22.894272",
        "meta_mean_motion": 1.00271901,
        "meta_eccentricity": 6.421e-05,
        "meta_inclination": 0.025,
        "meta_ra_of_asc_node": 12.6237,
        "meta_arg_of_pericenter": 351.154,
        "meta_mean_anomaly": 89.689,
        "meta_ephemeris_type": 0,
        "meta_classification_type": "U",
        "meta_norad_cat_id": 59346,
        "meta_element_set_no": 999,
        "meta_rev_at_epoch": 633,
        "meta_bstar": 0,
        "meta_mean_motion_dot": 0,
        "meta_mean_motion_ddot": 0,
        "tle_line1": "1 59346U 24059A   25351.91901498  .00000000  00000+0  00000+0 0  9992",
        "tle_line2": "2 59346   0.0250  12.6237 0000642 351.1540  89.6890  1.00271901  6331"
      },
      "geometry": {
        "type": "Point",
        "coordinates": [
          55.96506648276437,
          0.039773651672598526
        ]
      }
    }
  ]
}